{
    "links": {
        "self": "http://www.neowsapp.com/rest/v1/neo/3759003?api_key=iIulBulltgU6a56xZRHN4H3l9WmuAYTsLGpBGhQ2"
    },
    "id": "3759003",
    "neo_reference_id": "3759003",
    "name": "(2016 RP17)",
    "designation": "2016 RP17",
    "nasa_jpl_url": "http://ssd.jpl.nasa.gov/sbdb.cgi?sstr=3759003",
    "absolute_magnitude_h": 24.5,
    "estimated_diameter": {
        "kilometers": {
            "estimated_diameter_min": 0.0334622374,
            "estimated_diameter_max": 0.0748238376
        },
        "meters": {
            "estimated_diameter_min": 33.4622374455,
            "estimated_diameter_max": 74.8238376074
        },
        "miles": {
            "estimated_diameter_min": 0.0207924639,
            "estimated_diameter_max": 0.0464933628
        },
        "feet": {
            "estimated_diameter_min": 109.7842471007,
            "estimated_diameter_max": 245.4850393757
        }
    },
    "is_potentially_hazardous_asteroid": false,
    "close_approach_data": [
        {
            "close_approach_date": "2016-09-01",
            "close_approach_date_full": "2016-Sep-01 15:35",
            "epoch_date_close_approach": 1472744100000,
            "relative_velocity": {
                "kilometers_per_second": "19.3483630744",
                "kilometers_per_hour": "69654.1070679221",
                "miles_per_hour": "43280.3533611764"
            },
            "miss_distance": {
                "astronomical": "0.0215824737",
                "lunar": "8.3955822693",
                "kilometers": "3228692.094851019",
                "miles": "2006216.2382573022"
            },
            "orbiting_body": "Earth"
        }
    ],
    "orbital_data": {
        "orbit_id": "15",
        "orbit_determination_date": "2018-02-10 07:08:10",
        "first_observation_date": "2016-09-05",
        "last_observation_date": "2016-09-29",
        "data_arc_in_days": 24,
        "observations_used": 85,
        "orbit_uncertainty": "8",
        "minimum_orbit_intersection": ".0101832",
        "jupiter_tisserand_invariant": "3.173",
        "epoch_osculation": "2457646.5",
        "eccentricity": ".7092033262715712",
        "semi_major_axis": "2.333324923548688",
        "inclination": "3.260895686438618",
        "ascending_node_longitude": "355.4631599901139",
        "orbital_period": "1301.850927650728",
        "perihelion_distance": ".6785231264955988",
        "perihelion_argument": "266.9960960275501",
        "aphelion_distance": "3.988126720601777",
        "perihelion_time": "2457588.082054716424",
        "mean_anomaly": "16.15427684953004",
        "mean_motion": ".2765293570513812",
        "equinox": "J2000",
        "orbit_class": {
            "orbit_class_type": "APO",
            "orbit_class_description": "Near-Earth asteroid orbits which cross the Earth’s orbit similar to that of 1862 Apollo",
            "orbit_class_range": "a (semi-major axis) > 1.0 AU; q (perihelion) < 1.017 AU"
        }
    },
    "is_sentry_object": false
}